start=new Date('2022-05-06T00:00:00.000Z').valueOf();
sats=[{"OBJECT_NAME":"STARLINK-3789","REF_FRAME":"TEME","INCLINATION":"53.2146","ARG_OF_PERICENTER":"45.2336","COUNTRY_CODE":"US","RCS_SIZE":"LARGE","PERIAPSIS":"348.768","PERIOD":"91.532","OBJECT_TYPE":"PAYLOAD","DECAY_DATE":null,"MEAN_MOTION_DOT":"0.00019679","FILE":"3430750","LAUNCH_DATE":"2022-04-21","OBJECT_ID":"2022-041Y","MEAN_MOTION_DDOT":"0.0000000000000","EPOCH":"2022-05-05T22:00:00.999936","ECCENTRICITY":"0.00014180","NORAD_CAT_ID":"52283","SITE":"AFETR","REV_AT_EPOCH":"289","RA_OF_ASC_NODE":"304.3807","MEAN_ANOMALY":"247.7837","CLASSIFICATION_TYPE":"U","TLE_LINE2":"2 52283  53.2146 304.3807 0001418  45.2336 247.7837 15.73213389  2894","TIME_SYSTEM":"UTC","GP_ID":"202806620","SEMIMAJOR_AXIS":"6727.857","TLE_LINE1":"1 52283U 22041Y   22125.91667824  .00019679  00000-0  14422-3 0  9992","ELEMENT_SET_NO":"999","EPHEMERIS_TYPE":"0","APOAPSIS":"350.676","MEAN_ELEMENT_THEORY":"SGP4","CENTER_NAME":"EARTH","MEAN_MOTION":"15.73213389","BSTAR":"0.00014422000000"},{"PERIAPSIS":"348.758","RCS_SIZE":"LARGE","COUNTRY_CODE":"US","ARG_OF_PERICENTER":"45.3118","INCLINATION":"53.2142","REF_FRAME":"TEME","OBJECT_NAME":"STARLINK-3561","DECAY_DATE":null,"OBJECT_TYPE":"PAYLOAD","PERIOD":"91.535","FILE":"3430750","LAUNCH_DATE":"2022-04-21","MEAN_MOTION_DOT":"0.00020351","OBJECT_ID":"2022-041Z","MEAN_ANOMALY":"251.3520","RA_OF_ASC_NODE":"304.3719","SITE":"AFETR","REV_AT_EPOCH":"290","NORAD_CAT_ID":"52284","ECCENTRICITY":"0.00016120","EPOCH":"2022-05-05T22:00:00.999936","MEAN_MOTION_DDOT":"0.0000000000000","TIME_SYSTEM":"UTC","TLE_LINE2":"2 52284  53.2142 304.3719 0001612  45.3118 251.3520 15.73170956  2902","CLASSIFICATION_TYPE":"U","APOAPSIS":"350.928","EPHEMERIS_TYPE":"0","ELEMENT_SET_NO":"999","TLE_LINE1":"1 52284U 22041Z   22125.91667824  .00020351  00000-0  14925-3 0  9990","SEMIMAJOR_AXIS":"6727.978","GP_ID":"202806881","BSTAR":"0.00014925000000","MEAN_MOTION":"15.73170956","CENTER_NAME":"EARTH","MEAN_ELEMENT_THEORY":"SGP4"},{"FILE":"3430750","LAUNCH_DATE":"2022-04-21","MEAN_MOTION_DOT":"0.00019532","OBJECT_ID":"2022-041AA","OBJECT_NAME":"STARLINK-3775","REF_FRAME":"TEME","INCLINATION":"53.2146","ARG_OF_PERICENTER":"43.4635","COUNTRY_CODE":"US","RCS_SIZE":"LARGE","PERIAPSIS":"348.842","OBJECT_TYPE":"PAYLOAD","PERIOD":"91.536","DECAY_DATE":null,"GP_ID":"202806366","SEMIMAJOR_AXIS":"6728.045","TLE_LINE1":"1 52285U 22041AA  22125.91667824  .00019532  00000-0  14358-3 0  9990","ELEMENT_SET_NO":"999","APOAPSIS":"350.979","EPHEMERIS_TYPE":"0","MEAN_ELEMENT_THEORY":"SGP4","CENTER_NAME":"EARTH","MEAN_MOTION":"15.73147359","BSTAR":"0.00014358000000","MEAN_MOTION_DDOT":"0.0000000000000","EPOCH":"2022-05-05T22:00:00.999936","NORAD_CAT_ID":"52285","ECCENTRICITY":"0.00015880","REV_AT_EPOCH":"289","SITE":"AFETR","RA_OF_ASC_NODE":"304.3793","MEAN_ANOMALY":"250.2671","TLE_LINE2":"2 52285  53.2146 304.3793 0001588  43.4635 250.2671 15.73147359  2898","CLASSIFICATION_TYPE":"U","TIME_SYSTEM":"UTC"},{"BSTAR":"0.00016780000000","MEAN_MOTION":"15.73153737","CENTER_NAME":"EARTH","MEAN_ELEMENT_THEORY":"SGP4","EPHEMERIS_TYPE":"0","APOAPSIS":"350.821","TLE_LINE1":"1 52286U 22041AB  22125.91667824  .00022948  00000-0  16780-3 0  9997","ELEMENT_SET_NO":"999","SEMIMAJOR_AXIS":"6728.027","GP_ID":"202806454","TIME_SYSTEM":"UTC","TLE_LINE2":"2 52286  53.2145 304.3699 0001381  46.3152 251.5938 15.73153737  2897","CLASSIFICATION_TYPE":"U","MEAN_ANOMALY":"251.5938","RA_OF_ASC_NODE":"304.3699","REV_AT_EPOCH":"289","SITE":"AFETR","NORAD_CAT_ID":"52286","ECCENTRICITY":"0.00013810","EPOCH":"2022-05-05T22:00:00.999936","MEAN_MOTION_DDOT":"0.0000000000000","OBJECT_ID":"2022-041AB","MEAN_MOTION_DOT":"0.00022948","FILE":"3430750","LAUNCH_DATE":"2022-04-21","DECAY_DATE":null,"OBJECT_TYPE":"PAYLOAD","PERIOD":"91.536","PERIAPSIS":"348.963","RCS_SIZE":"LARGE","COUNTRY_CODE":"US","ARG_OF_PERICENTER":"46.3152","INCLINATION":"53.2145","REF_FRAME":"TEME","OBJECT_NAME":"STARLINK-3802"},{"BSTAR":"0.00065550000000","MEAN_MOTION":"15.73147818","CENTER_NAME":"EARTH","MEAN_ELEMENT_THEORY":"SGP4","EPHEMERIS_TYPE":"0","APOAPSIS":"350.880","TLE_LINE1":"1 52287U 22041AC  22125.91667824  .00092184  00000-0  65550-3 0  9996","ELEMENT_SET_NO":"999","GP_ID":"202806969","SEMIMAJOR_AXIS":"6728.044","TIME_SYSTEM":"UTC","CLASSIFICATION_TYPE":"U","TLE_LINE2":"2 52287  53.2147 304.3771 0001443  36.3272 258.5400 15.73147818  2896","MEAN_ANOMALY":"258.5400","RA_OF_ASC_NODE":"304.3771","SITE":"AFETR","REV_AT_EPOCH":"289","ECCENTRICITY":"0.00014430","NORAD_CAT_ID":"52287","EPOCH":"2022-05-05T22:00:00.999936","MEAN_MOTION_DDOT":"0.0000000000000","OBJECT_ID":"2022-041AC","LAUNCH_DATE":"2022-04-21","FILE":"3430750","MEAN_MOTION_DOT":"0.00092184","DECAY_DATE":null,"OBJECT_TYPE":"PAYLOAD","PERIOD":"91.536","RCS_SIZE":"MEDIUM","PERIAPSIS":"348.938","COUNTRY_CODE":"US","ARG_OF_PERICENTER":"36.3272","INCLINATION":"53.2147","REF_FRAME":"TEME","OBJECT_NAME":"STARLINK-3822"},{"FILE":"3430750","LAUNCH_DATE":"2022-04-21","MEAN_MOTION_DOT":"-0.00005248","OBJECT_ID":"2022-041AD","INCLINATION":"53.2146","REF_FRAME":"TEME","OBJECT_NAME":"STARLINK-3776","PERIAPSIS":"348.905","RCS_SIZE":"LARGE","COUNTRY_CODE":"US","ARG_OF_PERICENTER":"45.2421","PERIOD":"91.535","OBJECT_TYPE":"PAYLOAD","DECAY_DATE":null,"SEMIMAJOR_AXIS":"6727.985","GP_ID":"202806533","EPHEMERIS_TYPE":"0","APOAPSIS":"350.795","ELEMENT_SET_NO":"999","TLE_LINE1":"1 52288U 22041AD  22125.91667824 -.00005248  00000-0 -33041-4 0  9995","CENTER_NAME":"EARTH","MEAN_ELEMENT_THEORY":"SGP4","BSTAR":"-0.00003304100000","MEAN_MOTION":"15.73168527","ECCENTRICITY":"0.00014050","NORAD_CAT_ID":"52288","EPOCH":"2022-05-05T22:00:00.999936","MEAN_MOTION_DDOT":"0.0000000000000","MEAN_ANOMALY":"253.2273","RA_OF_ASC_NODE":"304.3687","SITE":"AFETR","REV_AT_EPOCH":"289","TIME_SYSTEM":"UTC","TLE_LINE2":"2 52288  53.2146 304.3687 0001405  45.2421 253.2273 15.73168527  2895","CLASSIFICATION_TYPE":"U"},{"TLE_LINE1":"1 52289U 22041AE  22125.91667824  .00074144  00000-0  52995-3 0  9993","ELEMENT_SET_NO":"999","APOAPSIS":"351.048","EPHEMERIS_TYPE":"0","SEMIMAJOR_AXIS":"6728.137","GP_ID":"202806715","BSTAR":"0.00052995000000","MEAN_MOTION":"15.73115167","CENTER_NAME":"EARTH","MEAN_ELEMENT_THEORY":"SGP4","MEAN_ANOMALY":"261.4169","SITE":"AFETR","REV_AT_EPOCH":"289","RA_OF_ASC_NODE":"304.3741","NORAD_CAT_ID":"52289","ECCENTRICITY":"0.00015540","MEAN_MOTION_DDOT":"0.0000000000000","EPOCH":"2022-05-05T22:00:00.999936","TIME_SYSTEM":"UTC","CLASSIFICATION_TYPE":"U","TLE_LINE2":"2 52289  53.2147 304.3741 0001554  34.6709 261.4169 15.73115167  2891","FILE":"3430750","LAUNCH_DATE":"2022-04-21","MEAN_MOTION_DOT":"0.00074144","OBJECT_ID":"2022-041AE","COUNTRY_CODE":"US","PERIAPSIS":"348.956","RCS_SIZE":"LARGE","ARG_OF_PERICENTER":"34.6709","REF_FRAME":"TEME","INCLINATION":"53.2147","OBJECT_NAME":"STARLINK-3751","DECAY_DATE":null,"PERIOD":"91.538","OBJECT_TYPE":"PAYLOAD"},{"TIME_SYSTEM":"UTC","CLASSIFICATION_TYPE":"U","TLE_LINE2":"2 52290  53.2142 304.3644 0001671  37.2355 263.0709 15.73170806  2895","MEAN_ANOMALY":"263.0709","REV_AT_EPOCH":"289","SITE":"AFETR","RA_OF_ASC_NODE":"304.3644","NORAD_CAT_ID":"52290","ECCENTRICITY":"0.00016710","MEAN_MOTION_DDOT":"0.0000000000000","EPOCH":"2022-05-05T22:00:00.999936","BSTAR":"-0.00021512000000","MEAN_MOTION":"15.73170806","CENTER_NAME":"EARTH","MEAN_ELEMENT_THEORY":"SGP4","TLE_LINE1":"1 52290U 22041AF  22125.91667824 -.00030664  00000-0 -21512-3 0  9997","ELEMENT_SET_NO":"999","APOAPSIS":"350.968","EPHEMERIS_TYPE":"0","SEMIMAJOR_AXIS":"6727.978","GP_ID":"202806803","DECAY_DATE":null,"OBJECT_TYPE":"PAYLOAD","PERIOD":"91.535","COUNTRY_CODE":"US","RCS_SIZE":"LARGE","PERIAPSIS":"348.719","ARG_OF_PERICENTER":"37.2355","REF_FRAME":"TEME","INCLINATION":"53.2142","OBJECT_NAME":"STARLINK-3772","OBJECT_ID":"2022-041AF","MEAN_MOTION_DOT":"-0.00030664","FILE":"3430750","LAUNCH_DATE":"2022-04-21"},{"TIME_SYSTEM":"UTC","CLASSIFICATION_TYPE":"U","TLE_LINE2":"2 52291  53.2147 304.3714 0001465  46.9453 250.3328 15.73124654  2892","NORAD_CAT_ID":"52291","ECCENTRICITY":"0.00014650","EPOCH":"2022-05-05T22:00:00.999936","MEAN_MOTION_DDOT":"0.0000000000000","MEAN_ANOMALY":"250.3328","RA_OF_ASC_NODE":"304.3714","REV_AT_EPOCH":"289","SITE":"AFETR","CENTER_NAME":"EARTH","MEAN_ELEMENT_THEORY":"SGP4","BSTAR":"0.00058459000000","MEAN_MOTION":"15.73124654","SEMIMAJOR_AXIS":"6728.110","GP_ID":"202806621","EPHEMERIS_TYPE":"0","APOAPSIS":"350.961","TLE_LINE1":"1 52291U 22041AG  22125.91667824  .00081962  00000-0  58459-3 0  9993","ELEMENT_SET_NO":"999","PERIOD":"91.538","OBJECT_TYPE":"PAYLOAD","DECAY_DATE":null,"INCLINATION":"53.2147","REF_FRAME":"TEME","OBJECT_NAME":"STARLINK-3773","RCS_SIZE":"LARGE","PERIAPSIS":"348.989","COUNTRY_CODE":"US","ARG_OF_PERICENTER":"46.9453","OBJECT_ID":"2022-041AG","LAUNCH_DATE":"2022-04-21","FILE":"3430750","MEAN_MOTION_DOT":"0.00081962"},{"PERIAPSIS":"348.649","RCS_SIZE":"LARGE","COUNTRY_CODE":"US","ARG_OF_PERICENTER":"43.8479","INCLINATION":"53.2146","REF_FRAME":"TEME","OBJECT_NAME":"STARLINK-3753","DECAY_DATE":null,"OBJECT_TYPE":"PAYLOAD","PERIOD":"91.534","MEAN_MOTION_DOT":"-0.00028671","FILE":"3430750","LAUNCH_DATE":"2022-04-21","OBJECT_ID":"2022-041AH","MEAN_ANOMALY":"257.6018","RA_OF_ASC_NODE":"304.3622","SITE":"AFETR","REV_AT_EPOCH":"289","ECCENTRICITY":"0.00017000","NORAD_CAT_ID":"52292","EPOCH":"2022-05-05T22:00:00.999936","MEAN_MOTION_DDOT":"0.0000000000000","TIME_SYSTEM":"UTC","TLE_LINE2":"2 52292  53.2146 304.3622 0001700  43.8479 257.6018 15.73188688  2899","CLASSIFICATION_TYPE":"U","EPHEMERIS_TYPE":"0","APOAPSIS":"350.936","TLE_LINE1":"1 52292U 22041AH  22125.91667824 -.00028671  00000-0 -20064-3 0  9995","ELEMENT_SET_NO":"999","SEMIMAJOR_AXIS":"6727.927","GP_ID":"202806882","BSTAR":"-0.00020064000000","MEAN_MOTION":"15.73188688","CENTER_NAME":"EARTH","MEAN_ELEMENT_THEORY":"SGP4"}];
